IRIDIUM 39              
1 25042U 97069D   25328.72068539  .00000828  00000+0  21049-3 0  9990
2 25042  86.3906 142.3600 0019407 126.2878 234.0123 14.49462977472212
IRIDIUM 38              
1 25043U 97069E   25328.61113932  .00000491  00000+0  15519-3 0  9998
2 25043  86.3974 165.7304 0000818  20.4080 339.7151 14.38288659469013
IRIDIUM 42              
1 25077U 97077A   25328.11826791  .00000430  00000+0  13987-3 0  9993
2 25077  86.3984 172.3001 0001607  66.8481 293.2885 14.36508746464153
IRIDIUM 44              
1 25078U 97077B   25328.05763681  .00000466  00000+0  14056-3 0  9992
2 25078  86.3964 153.8402 0001587 147.8089 212.3208 14.40408911466715
IRIDIUM 45              
1 25104U 97082A   25328.76112707  .00026596  00000+0  77309-3 0  9995
2 25104  86.3540 329.5300 0104339  87.2814 274.0372 15.29962145476525
IRIDIUM 24              
1 25105U 97082B   25328.65599566  .00000509  00000+0  14812-3 0  9992
2 25105  86.3927  12.2250 0009147 266.3917  93.6237 14.42302731466347
IRIDIUM 51              
1 25262U 98018A   25328.74698932  .00095375  00000+0  11734-2 0  9997
2 25262  86.3746 335.4539 0056303 350.7098   9.3118 15.57973711471846
IRIDIUM 57              
1 25273U 98019B   25328.72500362  .00000468  00000+0  15447-3 0  9992
2 25273  86.3953  77.9446 0001974  94.3911 265.7512 14.36030501447826
